0 IRIDIUM 33 DEB
1 35741U 97051RU  13285.28833405  .00009999  00000-0  27480-2 0  3582
2 35741 086.3794 125.3716 0034123 285.6187 074.1966 14.46568526235307
0 IRIDIUM 33 DEB
1 35741U 97051RU  13287.29431719  .00011910  00000-0  32637-2 0  3594
2 35741 086.3656 124.4887 0037753 285.4945 074.3547 14.46629925235594
0 IRIDIUM 33 DEB
1 35741U 97051RU  13288.33183497  .00012753  00000-0  34929-2 0  3601
2 35741 086.3665 124.0412 0037517 281.2525 078.5022 14.46662746235749
0 IRIDIUM 33 DEB
1 35741U 97051RU  13289.30017867  .00013412  00000-0  36707-2 0  3616
2 35741 086.3670 123.6297 0037526 275.2614 084.5188 14.46695021235880
0 IRIDIUM 33 DEB
1 35741U 97051RU  13290.26848939  .00013805  00000-0  37735-2 0  3624
2 35741 086.3647 123.2074 0038819 272.8161 086.8940 14.46726209236020
0 IRIDIUM 33 DEB
1 35741U 97051RU  13291.30595387  .00014344  00000-0  39181-2 0  3633
2 35741 086.3696 122.7651 0038763 266.1542 093.5551 14.46760148236175
0 IRIDIUM 33 DEB
1 35741U 97051RU  13291.51343983  .00015399  00000-0  42079-2 0  3641
2 35741 086.3740 122.6787 0037130 265.7491 093.9584 14.46774164236206
0 IRIDIUM 33 DEB
1 35741U 97051RU  13292.82752440  .00015854  00000-0  43294-2 0  3655
2 35741 086.3716 122.1163 0036516 263.2652 096.4448 14.46819234236396
0 IRIDIUM 33 DEB
1 35741U 97051RU  13294.27988963  .00016246  00000-0  44287-2 0  3667
2 35741 086.3639 121.4827 0037913 258.7564 100.9647 14.46868127236603
0 IRIDIUM 33 DEB
1 35741U 97051RU  13295.80135926  .00016213  00000-0  44154-2 0  3678
2 35741 086.3649 120.8270 0037862 253.2711 106.4327 14.46916828236828
